{
    "links": {
        "self": "http://www.neowsapp.com/rest/v1/neo/3825558?api_key=iIulBulltgU6a56xZRHN4H3l9WmuAYTsLGpBGhQ2"
    },
    "id": "3825558",
    "neo_reference_id": "3825558",
    "name": "(2018 NQ)",
    "designation": "2018 NQ",
    "nasa_jpl_url": "http://ssd.jpl.nasa.gov/sbdb.cgi?sstr=3825558",
    "absolute_magnitude_h": 22.2,
    "estimated_diameter": {
        "kilometers": {
            "estimated_diameter_min": 0.096506147,
            "estimated_diameter_max": 0.2157943048
        },
        "meters": {
            "estimated_diameter_min": 96.5061469579,
            "estimated_diameter_max": 215.7943048444
        },
        "miles": {
            "estimated_diameter_min": 0.059966121,
            "estimated_diameter_max": 0.134088323
        },
        "feet": {
            "estimated_diameter_min": 316.6212271853,
            "estimated_diameter_max": 707.9865871058
        }
    },
    "is_potentially_hazardous_asteroid": false,
    "close_approach_data": [
        {
            "close_approach_date": "1911-12-05",
            "close_approach_date_full": "1911-Dec-05 13:02",
            "epoch_date_close_approach": -1832669880000,
            "relative_velocity": {
                "kilometers_per_second": "31.7694930798",
                "kilometers_per_hour": "114370.1750873153",
                "miles_per_hour": "71065.1790702265"
            },
            "miss_distance": {
                "astronomical": "0.2709380949",
                "lunar": "105.3949189161",
                "kilometers": "40531761.898897863",
                "miles": "25185268.9875339894"
            },
            "orbiting_body": "Earth"
        },
        {
            "close_approach_date": "2018-07-03",
            "close_approach_date_full": "2018-Jul-03 23:44",
            "epoch_date_close_approach": 1530661440000,
            "relative_velocity": {
                "kilometers_per_second": "24.4752365032",
                "kilometers_per_hour": "88110.851411502",
                "miles_per_hour": "54748.6565339969"
            },
            "miss_distance": {
                "astronomical": "0.0265265607",
                "lunar": "10.3188321123",
                "kilometers": "3968316.979145709",
                "miles": "2465797.8302764242"
            },
            "orbiting_body": "Earth"
        }
    ],
    "orbital_data": {
        "orbit_id": "5",
        "orbit_determination_date": "2018-07-13 06:55:32",
        "first_observation_date": "2018-07-06",
        "last_observation_date": "2018-07-11",
        "data_arc_in_days": 5,
        "observations_used": 146,
        "orbit_uncertainty": "8",
        "minimum_orbit_intersection": ".0252244",
        "jupiter_tisserand_invariant": "3.777",
        "epoch_osculation": "2458307.5",
        "eccentricity": ".7058273063281666",
        "semi_major_axis": "1.722263464181458",
        "inclination": "21.9289117913492",
        "ascending_node_longitude": "278.9144719325503",
        "orbital_period": "825.5584173773615",
        "perihelion_distance": ".5066428824708427",
        "perihelion_argument": "261.9593295349909",
        "aphelion_distance": "2.937884045892073",
        "perihelion_time": "2458254.753508739086",
        "mean_anomaly": "23.00108200005102",
        "mean_motion": ".436068474892001",
        "equinox": "J2000",
        "orbit_class": {
            "orbit_class_type": "APO",
            "orbit_class_description": "Near-Earth asteroid orbits which cross the Earth’s orbit similar to that of 1862 Apollo",
            "orbit_class_range": "a (semi-major axis) > 1.0 AU; q (perihelion) < 1.017 AU"
        }
    },
    "is_sentry_object": false
}